QIANFAN-81              
1 63167U 25046J   26005.48540708  .00000255  00000+0  37608-3 0  9997
2 63167  88.9785 317.4164 0016652  54.8076 305.4631 13.51012041 50696
QIANFAN-82              
1 63168U 25046K   26005.44587086  .00000253  00000+0  37330-3 0  9994
2 63168  88.9785 317.4644 0014863  62.0583 298.2071 13.50984915 50678
QIANFAN-83              
1 63169U 25046L   26005.50210120  .00000303  00000+0  37726-3 0  9999
2 63169  88.9785 317.1884 0015975  47.8616 312.3896 13.61985439 50830
QIANFAN-84              
1 63170U 25046M   26005.47349017  .00000232  00000+0  34026-3 0  9996
2 63170  88.9784 317.5941 0017792  58.5614 301.7273 13.50994935 50600
QIANFAN-85              
1 63171U 25046N   26005.47041780  .00000246  00000+0  36157-3 0  9995
2 63171  88.9784 317.4661 0015203  60.9181 299.3490 13.50985980 50670
QIANFAN-86              
1 63172U 25046P   26005.47875292  .00000257  00000+0  37892-3 0  9998
2 63172  88.9786 317.3280 0013112  64.8597 295.3913 13.50985564 50753
QIANFAN-87              
1 63173U 25046Q   26005.45012182  .00000247  00000+0  36356-3 0  9991
2 63173  88.9783 317.4417 0013728  60.8257 299.4266 13.50983075 50689
QIANFAN-88              
1 63174U 25046R   26005.46633969  .00000230  00000+0  33653-3 0  9994
2 63174  88.9785 317.3951 0014181  67.5899 292.6753 13.50989573 50713
